96P/Machholz,e,58.2009,94.2877,14.7825,3.034438,0.1864604,0.95919857,242.1653,02/04.0/2016,2000,g 13.0,4.8
# From MPC 77020
97P/Metcalf-Brewington,e,17.8655,185.1892,228.2798,4.799664,0.0937320,0.45710403,152.8061,02/04.0/2016,2000,g  5.5,6.0
# From MPC 83523
98P/Takamizawa,e,10.5456,114.7294,157.8105,3.805165,0.1327834,0.56079713,121.1851,02/04.0/2016,2000,g  9.0,8.0
# From MPC 75718
99P/Kowal,e,4.3390,28.1819,174.2765,6.130616,0.0649304,0.23050804,213.6296,02/04.0/2016,2000,g  4.5,6.0
# From MPC 84321
100P/Hartley,e,25.5883,37.7255,181.8589,3.428447,0.1552594,0.41356458,350.9923,02/04.0/2016,2000,g  9.0,8.0
# From MPC 75718
101P/Chernykh,e,5.0476,116.2721,277.6864,5.789279,0.0707567,0.59540005,258.2175,02/04.0/2016,2000,g 10.0,4.8
# From MPC 86232
102P/Shoemaker,e,26.2961,339.7437,20.2641,3.779308,0.1341485,0.46765671,118.8476,02/04.0/2016,2000,g  6.5,8.0
# From NK 2714
103P/Hartley,e,13.5949,219.7320,181.3152,3.476316,0.1520636,0.69345461,292.8621,02/04.0/2016,2000,g  8.5,8.0
# From MPEC 2016-B13
104P/Kowal,e,10.2519,235.4394,200.6576,3.262186,0.1672788,0.63850073,351.1066,02/04.0/2016,2000,g 16.0,4.0
# From MPC 94676
105P/Singer Brewster,e,9.1765,192.4295,46.5130,3.466681,0.1526980,0.40975984,219.7014,02/04.0/2016,2000,g 11.5,6.0
# From MPC 92276
106P/Schuster,e,20.1799,50.3681,355.9836,3.755105,0.1354475,0.58924933,76.3432,02/04.0/2016,2000,g 14.0,4.8
# From MPC 94676
107P/Wilson-Harrington,e,2.7681,269.0905,92.7681,2.638819,0.2299269,0.62724267,166.9434,02/04.0/2016,2000,g 16.0,2.0
# From MPC 89313
108P/Ciffreo,e,13.1114,53.4944,358.2161,3.743777,0.1360627,0.54423610,64.3936,02/04.0/2016,2000,g  8.0,12.0
# From ICA 105, 420
109P/Swift-Tuttle,e,112.9961,139.8370,153.1193,26.12790,0.0073798,0.96373100,62.4156,02/04.0/2016,2000,g  4.5,6.0
# From MPC 91618
110P/Hartley,e,11.6828,287.6456,167.6528,3.612048,0.1435733,0.31531711,59.3855,02/04.0/2016,2000,g  1.0,12.0
# From MPC 75718
111P/Helin-Roman-Crockett,e,4.2285,89.7672,1.9499,4.139123,0.1170420,0.10558837,129.9307,02/04.0/2016,2000,g  5.0,8.0
# From MPC 69910
112P/Urata-Niijima,e,24.2045,31.9097,21.3902,3.530243,0.1485926,0.58780830,141.9315,02/04.0/2016,2000,g 14.0,6.0
# From MPC 92984
113P/Spitaler,e,5.7765,14.3760,50.0903,3.685252,0.1393168,0.42494917,39.8538,02/04.0/2016,2000,g 13.5,4.0
# From MPC 82722
114P/Wiseman-Skiff,e,18.2806,271.0619,172.8730,3.543751,0.1477438,0.55481236,147.2222,02/04.0/2016,2000,g 11.5,6.0
# From MPC 76027
115P/Maury,e,11.6714,176.0492,121.0858,4.271729,0.1116345,0.51771375,176.9279,02/04.0/2016,2000,g 10.5,6.0
# From MPC 94284
116P/Wild,e,3.6086,20.9886,173.3128,3.484789,0.1515093,0.37238886,3.5587,02/04.0/2016,2000,g  2.5,10.0
# From MPC 95735
117P/Helin-Roman-Alu,e,8.6985,58.8765,222.5755,4.094759,0.1189492,0.25400890,80.8053,02/04.0/2016,2000,g  2.5,8.0
# From MPC 95735
118P/Shoemaker-Levy,e,8.5143,151.7275,302.3285,3.462620,0.1529667,0.42815795,339.5109,02/04.0/2016,2000,g 12.0,4.0
# From MPC 84628
119P/Parker-Hartley,e,5.1958,243.0345,182.2214,4.292536,0.1108238,0.29789598,74.3535,02/04.0/2016,2000,g  3.5,8.0
# From MPC 80901
120P/Mueller,e,8.8843,3.8739,29.2426,4.104261,0.1185364,0.34674556,127.6205,02/04.0/2016,2000,g 12.0,4.0
# From MPC 75718
121P/Shoemaker-Holt,e,20.1533,94.1539,11.6373,4.594642,0.1000752,0.18343942,88.6357,02/04.0/2016,2000,g  6.5,8.0
# From MPC 75718
122P/de Vico,e,85.2096,79.5833,13.0435,17.66526,0.0132747,0.96265105,98.4773,02/04.0/2016,2000,g  7.5,5.2
# From MPC 79345
123P/West-Hartley,e,15.3558,46.5169,102.9416,3.860354,0.1299461,0.44927453,217.5148,02/04.0/2016,2000,g  4.0,10.0
# From MPC 87068
124P/Mrkos,e,31.5325,0.4022,183.7664,3.318133,0.1630660,0.50401830,108.4789,02/04.0/2016,2000,g 13.5,2.8
# From MPC 94676
125P/Spacewatch,e,9.9881,153.1960,87.1404,3.125298,0.1783885,0.51288914,192.9763,02/04.0/2016,2000,g 13.0,6.0
# From MPC 66205
126P/IRAS,e,45.7779,357.8193,356.6543,5.642033,0.0735446,0.69516443,160.1346,02/04.0/2016,2000,g  6.0,8.0
# From MPC 84321
127P/Holt-Olmstead,e,14.3025,13.6494,6.7062,3.450273,0.1537885,0.36066014,353.4167,02/04.0/2016,2000,g 11.0,6.0
# From MPC 75719
128P-B/Shoemaker-Holt,e,4.3639,214.2940,210.5808,4.503400,0.1031320,0.32146500,324.7522,02/04.0/2016,2000,g  8.5,4.0
# From MPC 82322
129P/Shoemaker-Levy,e,3.4443,184.8953,308.9642,4.276768,0.1114373,0.08494275,81.0511,02/04.0/2016,2000,g 11.0,4.0
# From MPC 78188
130P/McNaught-Hughes,e,6.0346,71.3329,244.2926,3.398775,0.1572970,0.46303511,247.5975,02/04.0/2016,2000,g 10.0,6.0
# From MPC 76027
131P/Mueller,e,7.3545,214.1967,179.1560,3.678780,0.1396846,0.34274685,208.3129,02/04.0/2016,2000,g 11.0,4.0
# From MPC 92985
132P/Helin-Roman-Alu,e,5.8470,178.1468,221.2668,4.088660,0.1192155,0.53661724,74.0373,02/04.0/2016,2000,g 11.0,6.0
# From MPC 94676
133P/Elst-Pizarro,e,1.3873,160.1376,131.9645,3.160090,0.1754506,0.16057293,191.5746,02/04.0/2016,2000,g 15.4,2.0
# From MPC 89012
134P/Kowal-Vavrova,e,4.3490,202.0950,18.6357,6.239847,0.0632329,0.58791128,39.4149,02/04.0/2016,2000,g 11.5,4.0
# From MPC 92985
135P/Shoemaker-Levy,e,6.0617,213.0878,21.9925,3.803714,0.1328594,0.29550941,61.0147,02/04.0/2016,2000,g  7.0,8.0
# From MPC 84321
136P/Mueller,e,9.4160,137.4530,225.1815,4.203179,0.1143766,0.29122697,346.5876,02/04.0/2016,2000,g 11.0,4.0
# From MPC 75719
137P/Shoemaker-Levy,e,4.8502,233.0740,140.9790,4.518118,0.1026284,0.57204299,252.8527,02/04.0/2016,2000,g 11.0,4.0
# From MPC 65938
138P/Shoemaker-Levy,e,10.0844,309.3737,95.5994,3.622263,0.1429664,0.52959204,190.6663,02/04.0/2016,2000,g 15.0,6.0
# From MPC 89012
139P/Vaisala-Oterma,e,2.3325,242.2415,166.1637,4.529049,0.1022571,0.24644384,290.8174,02/04.0/2016,2000,g  9.5,4.0
# From MPC 92985
140P/Bowell-Skiff,e,3.8211,343.3938,172.9252,6.448863,0.0601838,0.69177712,10.7975,02/04.0/2016,2000,g 11.5,6.0
# From MPC 94284
141P/Machholz,e,12.8089,246.0026,149.5101,3.022392,0.1875763,0.74821622,30.5666,02/04.0/2016,2000,g 12.0,12.0
# From MPC 71683
142P/Ge-Wang,e,12.3505,176.4715,175.1970,4.949066,0.0895198,0.49975196,186.3709,02/04.0/2016,2000,g  8.5,6.0
# From MPC 94676
143P/Kowal-Mrkos,e,4.6942,245.3051,320.8283,4.294543,0.1107462,0.40988148,268.8091,02/04.0/2016,2000,g 13.5,2.0
# From MPC 84321
144P/Kushida,e,4.1147,245.4925,216.1434,3.857826,0.1300739,0.62895269,332.8196,02/04.0/2016,2000,g  8.5,8.0
# From MPC 75720
145P/Shoemaker-Levy,e,11.2602,26.8184,10.4091,4.143990,0.1168358,0.54072558,292.8214,02/04.0/2016,2000,g 13.5,4.0
# From MPC 75720
146P/Shoemaker-LINEAR,e,23.0733,53.4566,316.9853,4.039741,0.1213875,0.64599456,342.1386,02/04.0/2016,2000,g 15.0,4.0
# From MPC 75720
147P/Kushida-Muramatsu,e,2.3689,93.7309,347.0651,3.800030,0.1330527,0.27722248,356.8291,02/04.0/2016,2000,g 14.0,4.0
# From MPC 89730
148P/Anderson-LINEAR,e,3.6817,89.7633,6.6947,3.675306,0.1398826,0.53973239,32.9048,02/04.0/2016,2000,g 16.0,2.0
# From MPC 75720
149P/Mueller,e,29.7652,145.2651,43.5969,4.321442,0.1097137,0.38973148,238.3758,02/04.0/2016,2000,g  8.0,8.0
# From MPC 75720
150P/LONEOS,e,18.5071,272.4295,245.6791,3.883098,0.1288061,0.54682808,337.8520,02/04.0/2016,2000,g 13.5,4.0
# From MPC 95214
151P/Helin,e,4.7196,143.1554,216.2590,5.780660,0.0709150,0.57206882,8.4351,02/04.0/2016,2000,g 10.0,6.0
# From MPC 79346
152P/Helin-Lawrence,e,9.8701,91.8833,163.5328,4.491073,0.1035569,0.30766480,135.1831,02/04.0/2016,2000,g 11.5,4.0
# From MPC 46101
153P/Ikeya-Zhang,e,28.0957,93.3948,34.6645,51.19432,0.0026907,0.99014936,0.0000,03/22.6528/2002,2000,g  7.0,4.0
# From MPC 87068
154P/Brewington,e,17.9188,343.4287,48.2393,4.844910,0.0924220,0.67489642,72.2902,02/04.0/2016,2000,g  2.5,12.0
# From MPC 75720
155P/Shoemaker,e,6.4009,97.2640,14.7074,6.583798,0.0583431,0.72721211,279.5179,02/04.0/2016,2000,g 10.0,4.8
# From MPC 92985
156P/Russell-LINEAR,e,20.8404,38.7446,357.8951,3.592279,0.1447602,0.56042001,95.2510,02/04.0/2016,2000,g 15.5,2.0
# From MPC 95214
157P/Tritton,e,7.2850,300.0012,148.8902,3.408741,0.1566077,0.60159349,340.0556,02/04.0/2016,2000,g 10.0,4.0
# From MPC 76027
158P/Kowal-LINEAR,e,7.9063,137.2751,239.9550,4.738130,0.0955638,0.03023196,110.5464,02/04.0/2016,2000,g  9.0,4.0
# From MPC 75721
159P/LONEOS,e,23.4599,55.0446,4.8626,5.860687,0.0694674,0.38184646,301.6949,02/04.0/2016,2000,g 10.0,4.0
# From MPC 80901
160P/LINEAR,e,16.9927,335.3189,12.0215,3.729191,0.1368618,0.54227603,169.0946,02/04.0/2016,2000,g 15.5,2.0
# From MPC 75721
161P/Hartley-IRAS,e,95.5786,1.2314,46.9604,7.720339,0.0459462,0.83567067,178.3826,02/04.0/2016,2000,g  8.5,6.0
# From MPC 92985
162P/Siding Spring,e,27.7864,31.2090,356.4265,3.056623,0.1844341,0.59513681,38.1778,02/04.0/2016,2000,g 12.0,4.0
# From MPC 78188
163P/NEAT,e,12.7159,102.1104,349.8046,3.766878,0.1348130,0.45253174,187.7112,02/04.0/2016,2000,g 14.5,4.0
# From MPC 94676
164P/Christensen,e,16.2584,88.3124,325.9890,3.658811,0.1408296,0.53979414,240.6538,02/04.0/2016,2000,g 11.0,4.0
# From MPC 75721
165P/LINEAR,e,15.9043,0.5080,126.3503,17.89505,0.0130198,0.61815219,74.3406,02/04.0/2016,2000,g 11.5,2.0
# From MPC 75722
166P/NEAT,e,15.3607,64.4726,322.1941,13.90047,0.0190178,0.37975058,95.4034,02/04.0/2016,2000,g  5.5,4.0
# From MPC 75722
167P/CINEOS,e,19.1035,295.8494,343.5226,16.15224,0.0151829,0.27139660,82.2686,02/04.0/2016,2000,g  9.5,2.0
# From MPC 82322
168P/Hergenrother,e,22.0059,356.4033,13.7105,3.611239,0.1436216,0.61176895,175.1725,02/04.0/2016,2000,g 15.5,4.0
# From MPC 94676
169P/NEAT,e,11.2982,176.1196,218.0158,2.604232,0.2345226,0.76705198,168.5715,02/04.0/2016,2000,g 16.0,2.0
# From MPC 89012
170P/Christensen,e,10.1279,142.9199,225.8219,4.197602,0.1146046,0.30412243,57.7758,02/04.0/2016,2000,g 12.0,4.0
# From MPC 79024
171P/Spahr,e,21.9457,101.7132,347.2134,3.555920,0.1469861,0.50239371,202.0609,02/04.0/2016,2000,g 13.5,4.0
# From MPC 93588
172P/Yeung,e,11.2206,30.9253,208.8575,4.222424,0.1135956,0.20971468,314.3941,02/04.0/2016,2000,g 13.0,4.0
# From MPC 75722
173P/Mueller,e,16.5039,100.4721,29.5962,5.690451,0.0726079,0.26199613,204.3963,02/04.0/2016,2000,g  7.5,4.0
# From MPC 92985
